{
  "type": "FeatureCollection",
  "features": [
    {
      "type": "Feature",
      "properties": {
        "norad_id": 37238,
        "name": "INTELSAT 17 (IS-17)",
        "group": "intelsat",
        "lat": -0.0016415033880276583,
        "lon": -52.61485567853967,
        "alt_km": 35775.80274276901,
        "timestamp": "2025-12-25T09:48:51.953878+00:00",
        "meta_object_name": "INTELSAT 17 (IS-17)",
        "meta_object_id": "2010-065B",
        "meta_epoch": "2025-12-24T23:41:10.237920",
        "meta_mean_motion": 1.00271402,
        "meta_eccentricity": 0.0002679,
        "meta_inclination": 0.0089,
        "meta_ra_of_asc_node": 124.505,
        "meta_arg_of_pericenter": 159.0202,
        "meta_mean_anomaly": 231.5148,
        "meta_ephemeris_type": 0,
        "meta_classification_type": "U",
        "meta_norad_cat_id": 37238,
        "meta_element_set_no": 999,
        "meta_rev_at_epoch": 5150,
        "meta_bstar": 0,
        "meta_mean_motion_dot": 2e-07,
        "meta_mean_motion_ddot": 0,
        "tle_line1": "1 37238U 10065B   25358.98692405  .00000020  00000+0  00000+0 0  9991",
        "tle_line2": "2 37238   0.0089 124.5050 0002679 159.0202 231.5148  1.00271402 51504"
      },
      "geometry": {
        "type": "Point",
        "coordinates": [
          -52.61485567853967,
          -0.0016415033880276583
        ]
      }
    },
    {
      "type": "Feature",
      "properties": {
        "norad_id": 37392,
        "name": "INTELSAT 28 (IS-28)",
        "group": "intelsat",
        "lat": 1.1087901202147195,
        "lon": -150.35418089122356,
        "alt_km": 35778.60373865382,
        "timestamp": "2025-12-25T09:48:51.953890+00:00",
        "meta_object_name": "INTELSAT 28 (IS-28)",
        "meta_object_id": "2011-016A",
        "meta_epoch": "2025-12-24T23:13:12.914976",
        "meta_mean_motion": 1.00272029,
        "meta_eccentricity": 0.0003735,
        "meta_inclination": 1.3543,
        "meta_ra_of_asc_node": 84.9231,
        "meta_arg_of_pericenter": 187.1936,
        "meta_mean_anomaly": 138.2165,
        "meta_ephemeris_type": 0,
        "meta_classification_type": "U",
        "meta_norad_cat_id": 37392,
        "meta_element_set_no": 999,
        "meta_rev_at_epoch": 5153,
        "meta_bstar": 0,
        "meta_mean_motion_dot": -2.04e-06,
        "meta_mean_motion_ddot": 0,
        "tle_line1": "1 37392U 11016A   25358.96751059 -.00000204  00000+0  00000+0 0  9993",
        "tle_line2": "2 37392   1.3543  84.9231 0003735 187.1936 138.2165  1.00272029 51535"
      },
      "geometry": {
        "type": "Point",
        "coordinates": [
          -150.35418089122356,
          1.1087901202147195
        ]
      }
    },
    {
      "type": "Feature",
      "properties": {
        "norad_id": 37834,
        "name": "INTELSAT 18 (IS-18)",
        "group": "intelsat",
        "lat": 0.023450609304816857,
        "lon": 61.391658313628255,
        "alt_km": 35791.352844319976,
        "timestamp": "2025-12-25T09:48:51.953901+00:00",
        "meta_object_name": "INTELSAT 18 (IS-18)",
        "meta_object_id": "2011-056A",
        "meta_epoch": "2025-12-25T01:24:38.642976",
        "meta_mean_motion": 1.00271682,
        "meta_eccentricity": 0.0001854,
        "meta_inclination": 0.0212,
        "meta_ra_of_asc_node": 290.3629,
        "meta_arg_of_pericenter": 358.938,
        "meta_mean_anomaly": 5.6811,
        "meta_ephemeris_type": 0,
        "meta_classification_type": "U",
        "meta_norad_cat_id": 37834,
        "meta_element_set_no": 999,
        "meta_rev_at_epoch": 5206,
        "meta_bstar": 0,
        "meta_mean_motion_dot": 7.4e-07,
        "meta_mean_motion_ddot": 0,
        "tle_line1": "1 37834U 11056A   25359.05878059  .00000074  00000+0  00000+0 0  9993",
        "tle_line2": "2 37834   0.0212 290.3629 0001854 358.9380   5.6811  1.00271682 52068"
      },
      "geometry": {
        "type": "Point",
        "coordinates": [
          61.391658313628255,
          0.023450609304816857
        ]
      }
    },
    {
      "type": "Feature",
      "properties": {
        "norad_id": 38098,
        "name": "INTELSAT 22 (IS-22)",
        "group": "intelsat",
        "lat": -0.04683441674914056,
        "lon": -46.5299645655433,
        "alt_km": 35778.58551868964,
        "timestamp": "2025-12-25T09:48:51.953913+00:00",
        "meta_object_name": "INTELSAT 22 (IS-22)",
        "meta_object_id": "2012-011A",
        "meta_epoch": "2025-12-25T01:25:30.246240",
        "meta_mean_motion": 1.00270524,
        "meta_eccentricity": 0.0001937,
        "meta_inclination": 0.0297,
        "meta_ra_of_asc_node": 47.6091,
        "meta_arg_of_pericenter": 249.4587,
        "meta_mean_anomaly": 250.2191,
        "meta_ephemeris_type": 0,
        "meta_classification_type": "U",
        "meta_norad_cat_id": 38098,
        "meta_element_set_no": 999,
        "meta_rev_at_epoch": 544,
        "meta_bstar": 0,
        "meta_mean_motion_dot": 0,
        "meta_mean_motion_ddot": 0,
        "tle_line1": "1 38098U 12011A   25359.05937785  .00000000  00000+0  00000+0 0  9999",
        "tle_line2": "2 38098   0.0297  47.6091 0001937 249.4587 250.2191  1.00270524  5448"
      },
      "geometry": {
        "type": "Point",
        "coordinates": [
          -46.5299645655433,
          -0.04683441674914056
        ]
      }
    },
    {
      "type": "Feature",
      "properties": {
        "norad_id": 38356,
        "name": "INTELSAT 19 (IS-19)",
        "group": "intelsat",
        "lat": 0.023034804441132227,
        "lon": 47.409427766561706,
        "alt_km": 35795.03781224487,
        "timestamp": "2025-12-25T09:48:51.953925+00:00",
        "meta_object_name": "INTELSAT 19 (IS-19)",
        "meta_object_id": "2012-030A",
        "meta_epoch": "2025-12-25T04:09:50.825088",
        "meta_mean_motion": 1.00272047,
        "meta_eccentricity": 0.000294,
        "meta_inclination": 0.0117,
        "meta_ra_of_asc_node": 329.2864,
        "meta_arg_of_pericenter": 301.5405,
        "meta_mean_anomaly": 51.579,
        "meta_ephemeris_type": 0,
        "meta_classification_type": "U",
        "meta_norad_cat_id": 38356,
        "meta_element_set_no": 999,
        "meta_rev_at_epoch": 4870,
        "meta_bstar": 0,
        "meta_mean_motion_dot": -3.5e-07,
        "meta_mean_motion_ddot": 0,
        "tle_line1": "1 38356U 12030A   25359.17350492 -.00000035  00000+0  00000+0 0  9993",
        "tle_line2": "2 38356   0.0117 329.2864 0002940 301.5405  51.5790  1.00272047 48702"
      },
      "geometry": {
        "type": "Point",
        "coordinates": [
          47.409427766561706,
          0.023034804441132227
        ]
      }
    },
    {
      "type": "Feature",
      "properties": {
        "norad_id": 38740,
        "name": "INTELSAT 20 (IS-20)",
        "group": "intelsat",
        "lat": -0.026423176309320198,
        "lon": -50.09492882768367,
        "alt_km": 35790.77014853182,
        "timestamp": "2025-12-25T09:48:51.953937+00:00",
        "meta_object_name": "INTELSAT 20 (IS-20)",
        "meta_object_id": "2012-043A",
        "meta_epoch": "2025-12-24T23:41:40.191072",
        "meta_mean_motion": 1.00274574,
        "meta_eccentricity": 0.0002407,
        "meta_inclination": 0.0114,
        "meta_ra_of_asc_node": 58.8187,
        "meta_arg_of_pericenter": 128.2176,
        "meta_mean_anomaly": 330.6334,
        "meta_ephemeris_type": 0,
        "meta_classification_type": "U",
        "meta_norad_cat_id": 38740,
        "meta_element_set_no": 999,
        "meta_rev_at_epoch": 4900,
        "meta_bstar": 0,
        "meta_mean_motion_dot": -4e-08,
        "meta_mean_motion_ddot": 0,
        "tle_line1": "1 38740U 12043A   25358.98727073 -.00000004  00000+0  00000+0 0  9991",
        "tle_line2": "2 38740   0.0114  58.8187 0002407 128.2176 330.6334  1.00274574 49002"
      },
      "geometry": {
        "type": "Point",
        "coordinates": [
          -50.09492882768367,
          -0.026423176309320198
        ]
      }
    },
    {
      "type": "Feature",
      "properties": {
        "norad_id": 38749,
        "name": "INTELSAT 21 (IS-21)",
        "group": "intelsat",
        "lat": -0.007706187218900735,
        "lon": -176.62585070237412,
        "alt_km": 35784.79532739517,
        "timestamp": "2025-12-25T09:48:51.953948+00:00",
        "meta_object_name": "INTELSAT 21 (IS-21)",
        "meta_object_id": "2012-045A",
        "meta_epoch": "2025-12-24T21:23:00.970080",
        "meta_mean_motion": 1.00272669,
        "meta_eccentricity": 0.0001677,
        "meta_inclination": 0.0114,
        "meta_ra_of_asc_node": 311.8484,
        "meta_arg_of_pericenter": 312.5149,
        "meta_mean_anomaly": 92.0621,
        "meta_ephemeris_type": 0,
        "meta_classification_type": "U",
        "meta_norad_cat_id": 38749,
        "meta_element_set_no": 999,
        "meta_rev_at_epoch": 4877,
        "meta_bstar": 0,
        "meta_mean_motion_dot": -2.64e-06,
        "meta_mean_motion_ddot": 0,
        "tle_line1": "1 38749U 12045A   25358.89098345 -.00000264  00000+0  00000+0 0  9993",
        "tle_line2": "2 38749   0.0114 311.8484 0001677 312.5149  92.0621  1.00272669 48773"
      },
      "geometry": {
        "type": "Point",
        "coordinates": [
          -176.62585070237412,
          -0.007706187218900735
        ]
      }
    }
  ]
}